ONEWEB-0640             
1 55804U 23029J   25318.06535943 -.00000164  00000+0 -47690-3 0  9993
2 55804  87.8997 332.6153 0002128 114.4726 245.6625 13.14501048131151
ONEWEB-0641             
1 55805U 23029K   25318.16237797 -.00000003  00000+0 -40720-4 0  9991
2 55805  87.9222 347.7473 0002077  96.1382 263.9987 13.19727112130557
ONEWEB-0642             
1 55806U 23029L   25318.15764457  .00000037  00000+0  60278-4 0  9994
2 55806  87.9208 347.7740 0002736  92.6680 267.4766 13.19727119130543
ONEWEB-0643             
1 55807U 23029M   25318.11135616  .00000253  00000+0  64774-3 0  9994
2 55807  87.8997 332.5913 0002481  85.0208 275.1205 13.14501384131130
ONEWEB-0644             
1 55808U 23029N   25318.15290630  .00000011  00000+0 -39456-5 0  9991
2 55808  87.9214 347.7845 0002365  93.8528 266.2875 13.19726421130543
ONEWEB-0645             
1 55809U 23029P   25318.32417009  .00011325  00000+0  28851-1 0  9994
2 55809  87.9157 347.7436 0002470 100.4702 259.6708 13.18229464130569
ONEWEB-0646             
1 55810U 23029Q   25318.11659184  .00000106  00000+0  23256-3 0  9996
2 55810  87.9214 347.7756 0002133  93.4888 266.6489 13.19723404130526
ONEWEB-0648             
1 55811U 23029R   25318.07964409 -.00000201  00000+0 -57692-3 0  9990
2 55811  87.8990 332.5596 0002755 101.8723 258.2716 13.14503380131135
ONEWEB-0649             
1 55812U 23029S   25318.14185227 -.00000054  00000+0 -16614-3 0  9997
2 55812  87.9222 347.7660 0002292  99.2129 260.9263 13.19726043130562
ONEWEB-0650             
1 55813U 23029T   25318.13709806 -.00000004  00000+0 -42518-4 0  9990
2 55813  87.9211 347.7746 0002011  95.6273 264.5090 13.19727725130538
ONEWEB-0652             
1 55814U 23029U   25318.13672106  .00000053  00000+0  10935-3 0  9992
2 55814  87.8993 332.5693 0001687  91.0818 269.0505 13.14501563131112
ONEWEB-0653             
1 55815U 23029V   25318.04475541  .00000128  00000+0  31097-3 0  9992
2 55815  87.8995 332.5773 0001694  97.4606 262.6716 13.14506309131135
ONEWEB-0654             
1 55816U 23029W   25318.11611089  .00000428  00000+0  11191-2 0  9995
2 55816  87.8984 332.5620 0001378  93.2843 266.8445 13.14501592131168
ONEWEB-0656             
1 55817U 23029X   25318.05480496 -.00000043  00000+0 -13714-3 0  9994
2 55817  87.9181 317.3317 0001346  86.8751 273.2536 13.20772561132756
ONEWEB-0657             
1 55818U 23029Y   25318.05656604  .00000051  00000+0  93887-4 0  9998
2 55818  87.9208 347.7933 0001637  70.1956 289.9353 13.19723478130530
ONEWEB-0658             
1 55819U 23029Z   25318.05180672  .00000050  00000+0  91857-4 0  9990
2 55819  87.9232 347.7426 0002325  93.0424 267.0975 13.19727445130540
