[{"OBJECT_NAME":"ONEWEB-0640","OBJECT_ID":"2023-029J","EPOCH":"2025-11-14T01:34:07.054752","MEAN_MOTION":13.14501048,"ECCENTRICITY":0.00021282,"INCLINATION":87.8997,"RA_OF_ASC_NODE":332.6153,"ARG_OF_PERICENTER":114.4726,"MEAN_ANOMALY":245.6625,"EPHEMERIS_TYPE":0,"CLASSIFICATION_TYPE":"U","NORAD_CAT_ID":55804,"ELEMENT_SET_NO":999,"REV_AT_EPOCH":13115,"BSTAR":-0.0004769009,"MEAN_MOTION_DOT":-1.64e-6,"MEAN_MOTION_DDOT":0},{"OBJECT_NAME":"ONEWEB-0641","OBJECT_ID":"2023-029K","EPOCH":"2025-11-14T03:53:49.456608","MEAN_MOTION":13.19727112,"ECCENTRICITY":0.00020776,"INCLINATION":87.9222,"RA_OF_ASC_NODE":347.7473,"ARG_OF_PERICENTER":96.1382,"MEAN_ANOMALY":263.9987,"EPHEMERIS_TYPE":0,"CLASSIFICATION_TYPE":"U","NORAD_CAT_ID":55805,"ELEMENT_SET_NO":999,"REV_AT_EPOCH":13055,"BSTAR":-4.0720208e-5,"MEAN_MOTION_DOT":-3.0e-8,"MEAN_MOTION_DDOT":0},{"OBJECT_NAME":"ONEWEB-0642","OBJECT_ID":"2023-029L","EPOCH":"2025-11-14T03:47:00.490848","MEAN_MOTION":13.19727119,"ECCENTRICITY":0.00027362,"INCLINATION":87.9208,"RA_OF_ASC_NODE":347.774,"ARG_OF_PERICENTER":92.668,"MEAN_ANOMALY":267.4766,"EPHEMERIS_TYPE":0,"CLASSIFICATION_TYPE":"U","NORAD_CAT_ID":55806,"ELEMENT_SET_NO":999,"REV_AT_EPOCH":13054,"BSTAR":6.0277741e-5,"MEAN_MOTION_DOT":3.7e-7,"MEAN_MOTION_DDOT":0},{"OBJECT_NAME":"ONEWEB-0643","OBJECT_ID":"2023-029M","EPOCH":"2025-11-14T02:40:21.172224","MEAN_MOTION":13.14501384,"ECCENTRICITY":0.00024817,"INCLINATION":87.8997,"RA_OF_ASC_NODE":332.5913,"ARG_OF_PERICENTER":85.0208,"MEAN_ANOMALY":275.1205,"EPHEMERIS_TYPE":0,"CLASSIFICATION_TYPE":"U","NORAD_CAT_ID":55807,"ELEMENT_SET_NO":999,"REV_AT_EPOCH":13113,"BSTAR":0.00064774133,"MEAN_MOTION_DOT":2.53e-6,"MEAN_MOTION_DDOT":0},{"OBJECT_NAME":"ONEWEB-0644","OBJECT_ID":"2023-029N","EPOCH":"2025-11-14T03:40:11.104320","MEAN_MOTION":13.19726421,"ECCENTRICITY":0.0002365,"INCLINATION":87.9214,"RA_OF_ASC_NODE":347.7845,"ARG_OF_PERICENTER":93.8528,"MEAN_ANOMALY":266.2875,"EPHEMERIS_TYPE":0,"CLASSIFICATION_TYPE":"U","NORAD_CAT_ID":55808,"ELEMENT_SET_NO":999,"REV_AT_EPOCH":13054,"BSTAR":-3.945597e-6,"MEAN_MOTION_DOT":1.1e-7,"MEAN_MOTION_DDOT":0},{"OBJECT_NAME":"ONEWEB-0645","OBJECT_ID":"2023-029P","EPOCH":"2025-11-14T07:46:48.295776","MEAN_MOTION":13.18229464,"ECCENTRICITY":0.00024702,"INCLINATION":87.9157,"RA_OF_ASC_NODE":347.7436,"ARG_OF_PERICENTER":100.4702,"MEAN_ANOMALY":259.6708,"EPHEMERIS_TYPE":0,"CLASSIFICATION_TYPE":"U","NORAD_CAT_ID":55809,"ELEMENT_SET_NO":999,"REV_AT_EPOCH":13056,"BSTAR":0.028851035,"MEAN_MOTION_DOT":0.00011325,"MEAN_MOTION_DDOT":0},{"OBJECT_NAME":"ONEWEB-0646","OBJECT_ID":"2023-029Q","EPOCH":"2025-11-14T02:47:53.534976","MEAN_MOTION":13.19723404,"ECCENTRICITY":0.00021337,"INCLINATION":87.9214,"RA_OF_ASC_NODE":347.7756,"ARG_OF_PERICENTER":93.4888,"MEAN_ANOMALY":266.6489,"EPHEMERIS_TYPE":0,"CLASSIFICATION_TYPE":"U","NORAD_CAT_ID":55810,"ELEMENT_SET_NO":999,"REV_AT_EPOCH":13052,"BSTAR":0.00023255855,"MEAN_MOTION_DOT":1.06e-6,"MEAN_MOTION_DDOT":0},{"OBJECT_NAME":"ONEWEB-0648","OBJECT_ID":"2023-029R","EPOCH":"2025-11-14T01:54:41.249376","MEAN_MOTION":13.1450338,"ECCENTRICITY":0.0002755,"INCLINATION":87.899,"RA_OF_ASC_NODE":332.5596,"ARG_OF_PERICENTER":101.8723,"MEAN_ANOMALY":258.2716,"EPHEMERIS_TYPE":0,"CLASSIFICATION_TYPE":"U","NORAD_CAT_ID":55811,"ELEMENT_SET_NO":999,"REV_AT_EPOCH":13113,"BSTAR":-0.00057692286,"MEAN_MOTION_DOT":-2.01e-6,"MEAN_MOTION_DDOT":0},{"OBJECT_NAME":"ONEWEB-0649","OBJECT_ID":"2023-029S","EPOCH":"2025-11-14T03:24:16.036128","MEAN_MOTION":13.19726043,"ECCENTRICITY":0.00022923,"INCLINATION":87.9222,"RA_OF_ASC_NODE":347.766,"ARG_OF_PERICENTER":99.2129,"MEAN_ANOMALY":260.9263,"EPHEMERIS_TYPE":0,"CLASSIFICATION_TYPE":"U","NORAD_CAT_ID":55812,"ELEMENT_SET_NO":999,"REV_AT_EPOCH":13056,"BSTAR":-0.00016613672,"MEAN_MOTION_DOT":-5.4e-7,"MEAN_MOTION_DDOT":0},{"OBJECT_NAME":"ONEWEB-0650","OBJECT_ID":"2023-029T","EPOCH":"2025-11-14T03:17:25.272384","MEAN_MOTION":13.19727725,"ECCENTRICITY":0.00020118,"INCLINATION":87.9211,"RA_OF_ASC_NODE":347.7746,"ARG_OF_PERICENTER":95.6273,"MEAN_ANOMALY":264.509,"EPHEMERIS_TYPE":0,"CLASSIFICATION_TYPE":"U","NORAD_CAT_ID":55813,"ELEMENT_SET_NO":999,"REV_AT_EPOCH":13053,"BSTAR":-4.2517555e-5,"MEAN_MOTION_DOT":-4.0e-8,"MEAN_MOTION_DDOT":0},{"OBJECT_NAME":"ONEWEB-0652","OBJECT_ID":"2023-029U","EPOCH":"2025-11-14T03:16:52.699584","MEAN_MOTION":13.14501563,"ECCENTRICITY":0.00016879,"INCLINATION":87.8993,"RA_OF_ASC_NODE":332.5693,"ARG_OF_PERICENTER":91.0818,"MEAN_ANOMALY":269.0505,"EPHEMERIS_TYPE":0,"CLASSIFICATION_TYPE":"U","NORAD_CAT_ID":55814,"ELEMENT_SET_NO":999,"REV_AT_EPOCH":13111,"BSTAR":0.00010935412,"MEAN_MOTION_DOT":5.3e-7,"MEAN_MOTION_DDOT":0},{"OBJECT_NAME":"ONEWEB-0653","OBJECT_ID":"2023-029V","EPOCH":"2025-11-14T01:04:26.867424","MEAN_MOTION":13.14506309,"ECCENTRICITY":0.00016945,"INCLINATION":87.8995,"RA_OF_ASC_NODE":332.5773,"ARG_OF_PERICENTER":97.4606,"MEAN_ANOMALY":262.6716,"EPHEMERIS_TYPE":0,"CLASSIFICATION_TYPE":"U","NORAD_CAT_ID":55815,"ELEMENT_SET_NO":999,"REV_AT_EPOCH":13113,"BSTAR":0.00031096739,"MEAN_MOTION_DOT":1.28e-6,"MEAN_MOTION_DDOT":0},{"OBJECT_NAME":"ONEWEB-0654","OBJECT_ID":"2023-029W","EPOCH":"2025-11-14T02:47:11.980896","MEAN_MOTION":13.14501592,"ECCENTRICITY":0.00013786,"INCLINATION":87.8984,"RA_OF_ASC_NODE":332.562,"ARG_OF_PERICENTER":93.2843,"MEAN_ANOMALY":266.8445,"EPHEMERIS_TYPE":0,"CLASSIFICATION_TYPE":"U","NORAD_CAT_ID":55816,"ELEMENT_SET_NO":999,"REV_AT_EPOCH":13116,"BSTAR":0.0011191207,"MEAN_MOTION_DOT":4.28e-6,"MEAN_MOTION_DDOT":0},{"OBJECT_NAME":"ONEWEB-0656","OBJECT_ID":"2023-029X","EPOCH":"2025-11-14T01:18:55.148544","MEAN_MOTION":13.20772561,"ECCENTRICITY":0.00013463,"INCLINATION":87.9181,"RA_OF_ASC_NODE":317.3317,"ARG_OF_PERICENTER":86.8751,"MEAN_ANOMALY":273.2536,"EPHEMERIS_TYPE":0,"CLASSIFICATION_TYPE":"U","NORAD_CAT_ID":55817,"ELEMENT_SET_NO":999,"REV_AT_EPOCH":13275,"BSTAR":-0.00013713995,"MEAN_MOTION_DOT":-4.3e-7,"MEAN_MOTION_DDOT":0},{"OBJECT_NAME":"ONEWEB-0657","OBJECT_ID":"2023-029Y","EPOCH":"2025-11-14T01:21:27.305856","MEAN_MOTION":13.19723478,"ECCENTRICITY":0.00016376,"INCLINATION":87.9208,"RA_OF_ASC_NODE":347.7933,"ARG_OF_PERICENTER":70.1956,"MEAN_ANOMALY":289.9353,"EPHEMERIS_TYPE":0,"CLASSIFICATION_TYPE":"U","NORAD_CAT_ID":55818,"ELEMENT_SET_NO":999,"REV_AT_EPOCH":13053,"BSTAR":9.3886657e-5,"MEAN_MOTION_DOT":5.1e-7,"MEAN_MOTION_DDOT":0},{"OBJECT_NAME":"ONEWEB-0658","OBJECT_ID":"2023-029Z","EPOCH":"2025-11-14T01:14:36.100608","MEAN_MOTION":13.19727445,"ECCENTRICITY":0.00023257,"INCLINATION":87.9232,"RA_OF_ASC_NODE":347.7426,"ARG_OF_PERICENTER":93.0424,"MEAN_ANOMALY":267.0975,"EPHEMERIS_TYPE":0,"CLASSIFICATION_TYPE":"U","NORAD_CAT_ID":55819,"ELEMENT_SET_NO":999,"REV_AT_EPOCH":13054,"BSTAR":9.1856708e-5,"MEAN_MOTION_DOT":5.0e-7,"MEAN_MOTION_DDOT":0}]
